SL-3 R/B                
1 19046U 88032B   26084.59798517  .00004787  00000+0  22308-3 0  9995
2 19046  97.5214  67.7969 0025964 174.4060 185.7470 15.20080524 54527
SL-16 R/B               
1 19120U 88039B   26084.55254160  .00000076  00000+0  58883-4 0  9997
2 19120  71.0161  35.0036 0023529 311.5493  48.3614 14.19618060960631
COSMOS 1953             
1 19210U 88050A   26084.59764769  .00006344  00000+0  22524-3 0  9991
2 19210  82.5080 142.2460 0012514  72.9317 287.3293 15.28771621 40210
SL-8 R/B                
1 19257U 88053B   26084.44909917  .00000317  00000+0  11113-3 0  9991
2 19257  74.0451  83.4139 0021510 260.6238 214.9836 14.38926340978862
COSMOS 1975             
1 19573U 88093A   26084.30897824  .00005921  00000+0  21330-3 0  9992
2 19573  82.5168 102.0002 0013276 113.1510 247.1130 15.28274240 21795
SL-14 R/B               
1 19574U 88093B   26084.57815238  .00000568  00000+0  62533-4 0  9994
2 19574  82.5335  27.1305 0020401 350.1083 182.9199 14.85674919  3375
SL-16 R/B               
1 19650U 88102B   26084.37394161 -.00000241  00000+0 -97744-4 0  9997
2 19650  70.9977 118.4966 0014969 337.7337  22.3135 14.16154494929116
INTERCOSMOS 24          
1 20261U 89080A   26084.45052097  .00000531  00000+0  15742-3 0  9998
2 20261  82.6011  94.1376 1186784 256.2030  90.4490 12.59578417668784
SL-14 R/B               
1 20262U 89080C   26084.47958971  .00000414  00000+0  11676-3 0  9999
2 20262  82.5962 163.0542 1230873 148.6756 219.4029 12.50509070662121
DELTA 1 R/B             
1 20323U 89089B   26084.27827608  .00000318  00000+0  87073-4 0  9994
2 20323  97.0694 289.2361 0070640  73.7131 287.1822 14.50675426897999
ARIANE 40 R/B           
1 20443U 90005H   26084.58795808  .00000268  00000+0  98759-4 0  9994
2 20443  98.3050 144.7732 0010831 151.5722 208.6059 14.39880608895092
DELTA 2 R/B(1)          
1 20453U 90008B   26084.34097131  .00065596  00000+0  72556-3 0  9997
2 20453  35.6038  71.9795 0079056  44.5824 316.1238 15.57981471928576
